POLYITAN-1              
1 40042U 14033AJ  26204.06246917  .00021431  00000+0  64372-3 0  9995
2 40042  98.0941 233.7493 0007098  40.3838 319.7929 15.34435715659091
TIGRISAT                
1 40043U 14033AK  26204.22676706  .00001339  00000+0  15932-3 0  9990
2 40043  97.7874 353.4239 0048043 317.5587  42.1917 14.85266884650972
AEROCUBE 6A             
1 40045U 14033AM  26204.02093090  .00006125  00000+0  51139-3 0  9996
2 40045  97.7275  10.6016 0036112 253.9554 105.7690 14.98410696651987
AEROCUBE 6B             
1 40046U 14033AN  26204.18860401  .00005742  00000+0  46125-3 0  9995
2 40046  97.7204  10.6272 0038238 241.8973 117.8383 14.99856149652157
CANX-4                  
1 40055U 14034C   26204.15560153  .00000725  00000+0  10019-3 0  9993
2 40055  98.3072  80.7813 0011389 254.2192 105.7764 14.81320988649855
CANX-5                  
1 40056U 14034D   26204.15361427  .00000728  00000+0  10051-3 0  9996
2 40056  98.3075  80.8249 0011392 254.4845 105.5108 14.81338375640663
UKUBE-1                 
1 40074U 14037F   26203.00273654  .00008356  00000+0  46405-3 0  9993
2 40074  98.4254 209.9476 0003134  76.9955 283.1624 15.14023415653824
BRITE-PL2 (HEWELIUSZ)   
1 40119U 14049B   26204.25641334  .00001818  00000+0  17277-3 0  9999
2 40119  97.9122 316.5421 0013589 355.9834   4.1275 14.94705750646830
AEROCUBE 5C             
1 40965U 15058B   26204.17634529  .00003757  00000+0  32964-3 0  9992
2 40965  64.7666 150.6146 0132934  49.3982 311.8606 14.91617504371027
AEROCUBE 7              
1 40966U 15058C   26204.13581659  .00005223  00000+0  41273-3 0  9997
2 40966  64.7620 132.1954 0122634  47.7154 313.4278 14.95972848371335
FOX-1A (AO-85)          
1 40967U 15058D   26204.30272102  .00003792  00000+0  33669-3 0  9996
2 40967  64.7741 166.7325 0133071  42.7370 318.3997 14.91129767118956
SINOD-D 1               
1 40968U 15058E   26204.24321225  .00005576  00000+0  43849-3 0  9994
2 40968  64.7744 145.9777 0121725  39.1153 321.8682 14.96150866122057
SNAP-3 ALICE            
1 40970U 15058G   26203.77585245  .00166576  00000+0  13833-2 0  9995
2 40970  64.7491 340.0743 0026524 343.8665  16.1638 15.68961864122451
LMRST-SAT               
1 40971U 15058H   26204.26732131  .00003389  00000+0  30461-3 0  9998
2 40971  64.7747 163.2497 0134567  44.7497 316.4376 14.90742118118930
SNAP-3 EDDIE            
1 40972U 15058J   26204.30947123  .00193238  00000+0  14827-2 0  9993
2 40972  64.7407 328.6440 0027950 346.2137  13.8248 15.70726889124688
PROPCUBE 3              
1 40973U 15058K   26204.21371279  .00004623  00000+0  37866-3 0  9995
2 40973  64.7681 139.9567 0126387  45.9491 315.1947 14.94468458120181
BISONSAT                
1 40974U 15058L   26204.29930863  .00013145  00000+0  61313-3 0  9997
2 40974  64.7589  56.8012 0082803  32.2910 328.3244 15.17090256121090
SNAP-3 JIMI             
1 40975U 15058M   26204.13177842  .00007258  00000+0  48884-3 0  9997
2 40975  64.7647 106.0113 0108385  41.2538 319.6705 15.02693681119622
PROPCUBE 1 (FLORA)      
1 40976U 15058N   26204.25545581  .00003033  00000+0  28537-3 0  9990
2 40976  64.7731 183.4369 0133102  47.0166 314.2011 14.89361896121634
SINOD-D 3               
1 40977U 15058P   26204.31810479  .00004894  00000+0  40717-3 0  9999
2 40977  64.7714 162.9740 0121679  44.0271 317.0454 14.94228208120154
RAVAN                   
1 41849U 16067B   26204.17476876  .00064847  00000+0  85592-3 0  9996
2 41849  97.9828  97.9968 0003489 184.6097 175.5125 15.58171965533294
CELTEE 1                
1 41850U 16067C   26204.08845978  .00005014  00000+0  23642-3 0  9990
2 41850  98.0634  73.1041 0002499 100.0857 260.0658 15.19996567531331
OPTICUBE 04             
1 41851U 16067D   26204.13447358  .00001954  00000+0  12510-3 0  9998
2 41851  98.0668  58.2908 0015524   1.6575 358.4701 15.09795677530597
AEROCUBE 8D             
1 41852U 16067E   26204.18684385  .00007502  00000+0  30515-3 0  9997
2 41852  98.0635  77.0997 0004057  35.6702 324.4804 15.24851646531557
AEROCUBE 8C             
1 41853U 16067F   26203.87781190  .00007654  00000+0  30896-3 0  9995
2 41853  98.0510  73.9494 0003716 309.3108  50.7798 15.25100953531504
CORVUS BC2              
1 42846U 17042X   26203.40027891  .00002704  00000+0  18692-3 0  9993
2 42846  97.4098   3.3923 0012704 358.0532   2.0644 15.06484162492360
CORVUS BC1              
1 42847U 17042Y   26203.98874837  .00002931  00000+0  20140-3 0  9990
2 42847  97.4132   4.7956 0010884 332.1625  27.9019 15.06654610492486
MAKERSAT 0              
1 43016U 17073D   26204.08832403  .00023835  00000+0  62103-3 0  9999
2 43016  97.4573  86.9049 0105725 144.3345 216.5022 15.33243210471960
SIRION PATHFINDER-2     
1 43759U 18099B   26204.11938092  .00003743  00000+0  20479-3 0  9993
2 43759  97.4236 252.3249 0009296 164.7022 195.4493 15.14823429418069
CORVUS BC4              
1 43767U 18099K   26204.10885797  .00003728  00000+0  21623-3 0  9999
2 43767  97.4051 246.0394 0006938 227.5321 132.5324 15.12746042417836
