OBJECT_NAME,OBJECT_ID,EPOCH,MEAN_MOTION,ECCENTRICITY,INCLINATION,RA_OF_ASC_NODE,ARG_OF_PERICENTER,MEAN_ANOMALY,EPHEMERIS_TYPE,CLASSIFICATION_TYPE,NORAD_CAT_ID,ELEMENT_SET_NO,REV_AT_EPOCH,BSTAR,MEAN_MOTION_DOT,MEAN_MOTION_DDOT
POLYITAN-1,2014-033AJ,2026-07-23T01:29:57.336288,15.34435715,.00070982,98.0941,233.7493,40.3838,319.7929,0,U,40042,999,65909,.64371652E-3,.21431E-3,0
TIGRISAT,2014-033AK,2026-07-23T05:26:32.673984,14.85266884,.0048043,97.7874,353.4239,317.5587,42.1917,0,U,40043,999,65097,.1593192E-3,.1339E-4,0
AEROCUBE 6A,2014-033AM,2026-07-23T00:30:08.429760,14.98410696,.00361128,97.7275,10.6016,253.9554,105.7690,0,U,40045,999,65198,.51139375E-3,.6125E-4,0
AEROCUBE 6B,2014-033AN,2026-07-23T04:31:35.386464,14.99856149,.0038238,97.7204,10.6272,241.8973,117.8383,0,U,40046,999,65215,.4612487E-3,.5742E-4,0
CANX-4,2014-034C,2026-07-23T03:44:03.972192,14.81320988,.0011389,98.3072,80.7813,254.2192,105.7764,0,U,40055,999,64985,.10019368E-3,.725E-5,0
CANX-5,2014-034D,2026-07-23T03:41:12.272928,14.81338375,.00113923,98.3075,80.8249,254.4845,105.5108,0,U,40056,999,64066,.10050853E-3,.728E-5,0
UKUBE-1,2014-037F,2026-07-22T00:03:56.437056,15.14023415,.00031348,98.4254,209.9476,76.9955,283.1624,0,U,40074,999,65382,.4640491E-3,.8356E-4,0
BRITE-PL2 (HEWELIUSZ),2014-049B,2026-07-23T06:09:14.112576,14.94705750,.0013589,97.9122,316.5421,355.9834,4.1275,0,U,40119,999,64683,.17276837E-3,.1818E-4,0
AEROCUBE 5C,2015-058B,2026-07-23T04:13:56.233056,14.91617504,.01329344,64.7666,150.6146,49.3982,311.8606,0,U,40965,999,37102,.32963989E-3,.3757E-4,0
AEROCUBE 7,2015-058C,2026-07-23T03:15:34.553376,14.95972848,.01226341,64.7620,132.1954,47.7154,313.4278,0,U,40966,999,37133,.41272993E-3,.5223E-4,0
FOX-1A (AO-85),2015-058D,2026-07-23T07:15:55.096128,14.91129767,.01330713,64.7741,166.7325,42.7370,318.3997,0,U,40967,999,11895,.33668989E-3,.3792E-4,0
SINOD-D 1,2015-058E,2026-07-23T05:50:13.538400,14.96150866,.01217256,64.7744,145.9777,39.1153,321.8682,0,U,40968,999,12205,.43849411E-3,.5576E-4,0
SNAP-3 ALICE,2015-058G,2026-07-22T18:37:13.651680,15.68961864,.0026524,64.7491,340.0743,343.8665,16.1638,0,U,40970,999,12245,.13833318E-2,.166576E-2,0
LMRST-SAT,2015-058H,2026-07-23T06:24:56.561184,14.90742118,.01345674,64.7747,163.2497,44.7497,316.4376,0,U,40971,999,11893,.30461282E-3,.3389E-4,0
SNAP-3 EDDIE,2015-058J,2026-07-23T07:25:38.314272,15.70726889,.00279506,64.7407,328.6440,346.2137,13.8248,0,U,40972,999,12468,.14826695E-2,.193238E-2,0
PROPCUBE 3,2015-058K,2026-07-23T05:07:44.785056,14.94468458,.01263873,64.7681,139.9567,45.9491,315.1947,0,U,40973,999,12018,.37866203E-3,.4623E-4,0
BISONSAT,2015-058L,2026-07-23T07:11:00.265632,15.17090256,.00828034,64.7589,56.8012,32.2910,328.3244,0,U,40974,999,12109,.61313082E-3,.13145E-3,0
SNAP-3 JIMI,2015-058M,2026-07-23T03:09:45.655488,15.02693681,.01083851,64.7647,106.0113,41.2538,319.6705,0,U,40975,999,11962,.48883745E-3,.7258E-4,0
PROPCUBE 1 (FLORA),2015-058N,2026-07-23T06:07:51.381984,14.89361896,.01331026,64.7731,183.4369,47.0166,314.2011,0,U,40976,999,12163,.28537004E-3,.3033E-4,0
SINOD-D 3,2015-058P,2026-07-23T07:38:04.253856,14.94228208,.0121679,64.7714,162.9740,44.0271,317.0454,0,U,40977,999,12015,.40717454E-3,.4894E-4,0
RAVAN,2016-067B,2026-07-23T04:11:40.020864,15.58171965,.00034899,97.9828,97.9968,184.6097,175.5125,0,U,41849,999,53329,.85591579E-3,.64847E-3,0
CELTEE 1,2016-067C,2026-07-23T02:07:22.924992,15.19996567,.00024992,98.0634,73.1041,100.0857,260.0658,0,U,41850,999,53133,.2364162E-3,.5014E-4,0
OPTICUBE 04,2016-067D,2026-07-23T03:13:38.517312,15.09795677,.00155243,98.0668,58.2908,1.6575,358.4701,0,U,41851,999,53059,.12509527E-3,.1954E-4,0
AEROCUBE 8D,2016-067E,2026-07-23T04:29:03.308640,15.24851646,.00040571,98.0635,77.0997,35.6702,324.4804,0,U,41852,999,53155,.30514509E-3,.7502E-4,0
AEROCUBE 8C,2016-067F,2026-07-22T21:04:02.948160,15.25100953,.00037168,98.0510,73.9494,309.3108,50.7798,0,U,41853,999,53150,.30896067E-3,.7654E-4,0
CORVUS BC2,2017-042X,2026-07-22T09:36:24.097824,15.06484162,.00127041,97.4098,3.3923,358.0532,2.0644,0,U,42846,999,49236,.18691588E-3,.2704E-4,0
CORVUS BC1,2017-042Y,2026-07-22T23:43:47.859168,15.06654610,.00108844,97.4132,4.7956,332.1625,27.9019,0,U,42847,999,49248,.2013964E-3,.2931E-4,0
MAKERSAT 0,2017-073D,2026-07-23T02:07:11.196192,15.33243210,.01057257,97.4573,86.9049,144.3345,216.5022,0,U,43016,999,47196,.62103038E-3,.23835E-3,0
SIRION PATHFINDER-2,2018-099B,2026-07-23T02:51:54.511488,15.14823429,.00092966,97.4236,252.3249,164.7022,195.4493,0,U,43759,999,41806,.20478784E-3,.3743E-4,0
CORVUS BC4,2018-099K,2026-07-23T02:36:45.328608,15.12746042,.00069384,97.4051,246.0394,227.5321,132.5324,0,U,43767,999,41783,.21622572E-3,.3728E-4,0
